{
    "links": {
        "self": "http://www.neowsapp.com/rest/v1/neo/3648092?api_key=iIulBulltgU6a56xZRHN4H3l9WmuAYTsLGpBGhQ2"
    },
    "id": "3648092",
    "neo_reference_id": "3648092",
    "name": "(2013 RU73)",
    "designation": "2013 RU73",
    "nasa_jpl_url": "http://ssd.jpl.nasa.gov/sbdb.cgi?sstr=3648092",
    "absolute_magnitude_h": 24.6,
    "estimated_diameter": {
        "kilometers": {
            "estimated_diameter_min": 0.0319561887,
            "estimated_diameter_max": 0.0714562102
        },
        "meters": {
            "estimated_diameter_min": 31.9561886721,
            "estimated_diameter_max": 71.4562101727
        },
        "miles": {
            "estimated_diameter_min": 0.0198566489,
            "estimated_diameter_max": 0.0444008168
        },
        "feet": {
            "estimated_diameter_min": 104.8431420431,
            "estimated_diameter_max": 234.436392583
        }
    },
    "is_potentially_hazardous_asteroid": false,
    "close_approach_data": [
        {
            "close_approach_date": "2011-11-10",
            "close_approach_date_full": "2011-Nov-10 11:44",
            "epoch_date_close_approach": 1320925440000,
            "relative_velocity": {
                "kilometers_per_second": "14.7901494818",
                "kilometers_per_hour": "53244.5381346341",
                "miles_per_hour": "33084.0853759342"
            },
            "miss_distance": {
                "astronomical": "0.4027270798",
                "lunar": "156.6608340422",
                "kilometers": "60247113.329400026",
                "miles": "37435820.3008353188"
            },
            "orbiting_body": "Earth"
        },
        {
            "close_approach_date": "2013-09-16",
            "close_approach_date_full": "2013-Sep-16 03:38",
            "epoch_date_close_approach": 1379302680000,
            "relative_velocity": {
                "kilometers_per_second": "5.8808689752",
                "kilometers_per_hour": "21171.1283105535",
                "miles_per_hour": "13154.9158105214"
            },
            "miss_distance": {
                "astronomical": "0.0738525651",
                "lunar": "28.7286478239",
                "kilometers": "11048186.432996337",
                "miles": "6865024.7140379706"
            },
            "orbiting_body": "Earth"
        }
    ],
    "orbital_data": {
        "orbit_id": "10",
        "orbit_determination_date": "2017-04-06 08:44:42",
        "first_observation_date": "2013-09-13",
        "last_observation_date": "2013-10-28",
        "data_arc_in_days": 45,
        "observations_used": 27,
        "orbit_uncertainty": "7",
        "minimum_orbit_intersection": ".0537007",
        "jupiter_tisserand_invariant": "4.390",
        "epoch_osculation": "2459000.5",
        "eccentricity": ".3219288684877153",
        "semi_major_axis": "1.546740250210342",
        "inclination": "6.245918481690609",
        "ascending_node_longitude": "173.0487990400484",
        "orbital_period": "702.6264711061178",
        "perihelion_distance": "1.048799911615721",
        "perihelion_argument": "199.4990849946496",
        "aphelion_distance": "2.044680588804963",
        "perihelion_time": "2458675.590402940096",
        "mean_anomaly": "166.4717453036294",
        "mean_motion": ".5123632752310995",
        "equinox": "J2000",
        "orbit_class": {
            "orbit_class_type": "AMO",
            "orbit_class_description": "Near-Earth asteroid orbits similar to that of 1221 Amor",
            "orbit_class_range": "1.017 AU < q (perihelion) < 1.3 AU"
        }
    },
    "is_sentry_object": false
}